ISS (ZARYA)             
1 25544U 98067A   26194.76644922  .00004013  00000+0  80956-4 0  9991
2 25544  51.6307 168.5527 0006711 292.2587  67.7689 15.49001429575878
